start=new Date('2022-08-18T00:00:00.000Z').valueOf();
sats=[{"RA_OF_ASC_NODE":"185.1407","RCS_SIZE":"LARGE","MEAN_ELEMENT_THEORY":"SGP4","DECAY_DATE":null,"PERIAPSIS":"538.149","ARG_OF_PERICENTER":"55.5545","PERIOD":"95.439","TLE_LINE1":"1 52267U 22041G   22229.66667824  .00023202  00000-0  14719-2 0  9996","MEAN_ANOMALY":"288.9887","REV_AT_EPOCH":"130","FILE":"3538809","BSTAR":"0.00147190000000","OBJECT_NAME":"STARLINK-3748","REF_FRAME":"TEME","NORAD_CAT_ID":"52267","ECCENTRICITY":"0.00023970","INCLINATION":"53.2150","GP_ID":"210408811","OBJECT_ID":"2022-041G","MEAN_MOTION_DOT":"0.00023202","TLE_LINE2":"2 52267  53.2150 185.1407 0002397  55.5545 288.9887 15.08819686  1302","EPOCH":"2022-08-17T16:00:00.999936","CLASSIFICATION_TYPE":"U","ELEMENT_SET_NO":"999","CENTER_NAME":"EARTH","EPHEMERIS_TYPE":"0","COUNTRY_CODE":"US","SITE":"AFETR","APOAPSIS":"541.466","TIME_SYSTEM":"UTC","OBJECT_TYPE":"PAYLOAD","SEMIMAJOR_AXIS":"6917.942","MEAN_MOTION":"15.08819686","MEAN_MOTION_DDOT":"0.0000000000000","LAUNCH_DATE":"2022-04-21"},{"MEAN_MOTION":"15.08819219","SEMIMAJOR_AXIS":"6917.944","LAUNCH_DATE":"2022-04-21","MEAN_MOTION_DDOT":"0.0000000000000","EPHEMERIS_TYPE":"0","CENTER_NAME":"EARTH","ELEMENT_SET_NO":"999","CLASSIFICATION_TYPE":"U","TLE_LINE2":"2 52268  53.2168 185.1411 0002059  54.7581 349.7693 15.08819219  1306","EPOCH":"2022-08-17T16:00:00.999936","OBJECT_TYPE":"PAYLOAD","APOAPSIS":"541.233","TIME_SYSTEM":"UTC","SITE":"AFETR","COUNTRY_CODE":"US","NORAD_CAT_ID":"52268","REF_FRAME":"TEME","OBJECT_NAME":"STARLINK-3746","BSTAR":"0.00142150000000","MEAN_MOTION_DOT":"0.00022395","OBJECT_ID":"2022-041H","GP_ID":"210408675","INCLINATION":"53.2168","ECCENTRICITY":"0.00020590","DECAY_DATE":null,"MEAN_ELEMENT_THEORY":"SGP4","RCS_SIZE":"LARGE","RA_OF_ASC_NODE":"185.1411","FILE":"3538809","REV_AT_EPOCH":"130","MEAN_ANOMALY":"349.7693","TLE_LINE1":"1 52268U 22041H   22229.66667824  .00022395  00000-0  14215-2 0  9990","PERIAPSIS":"538.385","ARG_OF_PERICENTER":"54.7581","PERIOD":"95.439"},{"MEAN_MOTION":"15.08842145","SEMIMAJOR_AXIS":"6917.874","LAUNCH_DATE":"2022-04-21","MEAN_MOTION_DDOT":"0.0000000000000","EPHEMERIS_TYPE":"0","CENTER_NAME":"EARTH","TLE_LINE2":"2 52269  53.2165 185.1411 0001887  59.4707 305.0583 15.08842145  1301","EPOCH":"2022-08-17T16:00:00.999936","ELEMENT_SET_NO":"999","CLASSIFICATION_TYPE":"U","TIME_SYSTEM":"UTC","APOAPSIS":"541.044","OBJECT_TYPE":"PAYLOAD","COUNTRY_CODE":"US","SITE":"AFETR","REF_FRAME":"TEME","NORAD_CAT_ID":"52269","BSTAR":"-0.00041377000000","OBJECT_NAME":"STARLINK-3791","GP_ID":"210408539","INCLINATION":"53.2165","MEAN_MOTION_DOT":"-0.00006868","OBJECT_ID":"2022-041J","ECCENTRICITY":"0.00018870","DECAY_DATE":null,"RA_OF_ASC_NODE":"185.1411","RCS_SIZE":"LARGE","MEAN_ELEMENT_THEORY":"SGP4","REV_AT_EPOCH":"130","FILE":"3538809","PERIAPSIS":"538.433","PERIOD":"95.437","ARG_OF_PERICENTER":"59.4707","TLE_LINE1":"1 52269U 22041J   22229.66667824 -.00006868  00000-0 -41377-3 0  9990","MEAN_ANOMALY":"305.0583"},{"MEAN_ANOMALY":"2.3110","TLE_LINE1":"1 52270U 22041K   22229.66667824  .00022487  00000-0  14272-2 0  9998","PERIOD":"95.439","PERIAPSIS":"538.125","ARG_OF_PERICENTER":"57.0170","FILE":"3538809","REV_AT_EPOCH":"130","MEAN_ELEMENT_THEORY":"SGP4","RCS_SIZE":"LARGE","RA_OF_ASC_NODE":"185.1366","DECAY_DATE":null,"ECCENTRICITY":"0.00024260","OBJECT_ID":"2022-041K","MEAN_MOTION_DOT":"0.00022487","GP_ID":"210409356","INCLINATION":"53.2179","OBJECT_NAME":"STARLINK-3804","BSTAR":"0.00142720000000","NORAD_CAT_ID":"52270","REF_FRAME":"TEME","SITE":"AFETR","COUNTRY_CODE":"US","OBJECT_TYPE":"PAYLOAD","TIME_SYSTEM":"UTC","APOAPSIS":"541.482","CLASSIFICATION_TYPE":"U","ELEMENT_SET_NO":"999","TLE_LINE2":"2 52270  53.2179 185.1366 0002426  57.0170   2.3110 15.08821023  1300","EPOCH":"2022-08-17T16:00:00.999936","CENTER_NAME":"EARTH","EPHEMERIS_TYPE":"0","MEAN_MOTION_DDOT":"0.0000000000000","LAUNCH_DATE":"2022-04-21","SEMIMAJOR_AXIS":"6917.938","MEAN_MOTION":"15.08821023"},{"EPHEMERIS_TYPE":"0","CENTER_NAME":"EARTH","ELEMENT_SET_NO":"999","CLASSIFICATION_TYPE":"U","TLE_LINE2":"2 52271  53.2162 185.1410 0001989  56.2483 328.2873 15.08829489  1304","EPOCH":"2022-08-17T16:00:00.999936","OBJECT_TYPE":"PAYLOAD","APOAPSIS":"541.153","TIME_SYSTEM":"UTC","SITE":"AFETR","COUNTRY_CODE":"US","MEAN_MOTION":"15.08829489","SEMIMAJOR_AXIS":"6917.913","LAUNCH_DATE":"2022-04-21","MEAN_MOTION_DDOT":"0.0000000000000","DECAY_DATE":null,"MEAN_ELEMENT_THEORY":"SGP4","RCS_SIZE":"LARGE","RA_OF_ASC_NODE":"185.1410","FILE":"3538809","REV_AT_EPOCH":"130","MEAN_ANOMALY":"328.2873","TLE_LINE1":"1 52271U 22041L   22229.66667824 -.00004378  00000-0 -25720-3 0  9991","PERIAPSIS":"538.402","PERIOD":"95.438","ARG_OF_PERICENTER":"56.2483","NORAD_CAT_ID":"52271","REF_FRAME":"TEME","OBJECT_NAME":"STARLINK-3788","BSTAR":"-0.00025720000000","OBJECT_ID":"2022-041L","MEAN_MOTION_DOT":"-0.00004378","INCLINATION":"53.2162","GP_ID":"210408403","ECCENTRICITY":"0.00019890"},{"EPOCH":"2022-08-17T16:00:00.999936","TLE_LINE2":"2 52272  53.2171 185.1369 0002026  56.6645  22.6655 15.08843399  1304","CLASSIFICATION_TYPE":"U","ELEMENT_SET_NO":"999","CENTER_NAME":"EARTH","EPHEMERIS_TYPE":"0","COUNTRY_CODE":"US","SITE":"AFETR","TIME_SYSTEM":"UTC","APOAPSIS":"541.137","OBJECT_TYPE":"PAYLOAD","SEMIMAJOR_AXIS":"6917.870","MEAN_MOTION":"15.08843399","MEAN_MOTION_DDOT":"0.0000000000000","LAUNCH_DATE":"2022-04-21","RA_OF_ASC_NODE":"185.1369","RCS_SIZE":"LARGE","MEAN_ELEMENT_THEORY":"SGP4","DECAY_DATE":null,"PERIAPSIS":"538.333","PERIOD":"95.437","ARG_OF_PERICENTER":"56.6645","TLE_LINE1":"1 52272U 22041M   22229.66667824  .00006541  00000-0  42863-3 0  9991","MEAN_ANOMALY":"22.6655","REV_AT_EPOCH":"130","FILE":"3538809","BSTAR":"0.00042863000000","OBJECT_NAME":"STARLINK-3781","REF_FRAME":"TEME","NORAD_CAT_ID":"52272","ECCENTRICITY":"0.00020260","GP_ID":"210409084","INCLINATION":"53.2171","MEAN_MOTION_DOT":"0.00006541","OBJECT_ID":"2022-041M"},{"APOAPSIS":"540.845","TIME_SYSTEM":"UTC","OBJECT_TYPE":"PAYLOAD","COUNTRY_CODE":"US","SITE":"AFETR","EPHEMERIS_TYPE":"0","CENTER_NAME":"EARTH","TLE_LINE2":"2 52273  53.2159 175.1403 0001530  65.9934 348.3395 15.08826670  1304","EPOCH":"2022-08-17T16:00:00.999936","CLASSIFICATION_TYPE":"U","ELEMENT_SET_NO":"999","LAUNCH_DATE":"2022-04-21","MEAN_MOTION_DDOT":"0.0000000000000","MEAN_MOTION":"15.08826670","SEMIMAJOR_AXIS":"6917.921","REV_AT_EPOCH":"130","FILE":"3538809","PERIAPSIS":"538.728","PERIOD":"95.438","ARG_OF_PERICENTER":"65.9934","TLE_LINE1":"1 52273U 22041N   22229.66667824  .00031443  00000-0  19856-2 0  9996","MEAN_ANOMALY":"348.3395","DECAY_DATE":null,"RA_OF_ASC_NODE":"175.1403","RCS_SIZE":"LARGE","MEAN_ELEMENT_THEORY":"SGP4","INCLINATION":"53.2159","GP_ID":"210408948","OBJECT_ID":"2022-041N","MEAN_MOTION_DOT":"0.00031443","ECCENTRICITY":"0.00015300","REF_FRAME":"TEME","NORAD_CAT_ID":"52273","BSTAR":"0.00198560000000","OBJECT_NAME":"STARLINK-3782"},{"MEAN_MOTION":"15.08823731","SEMIMAJOR_AXIS":"6917.930","LAUNCH_DATE":"2022-04-21","MEAN_MOTION_DDOT":"0.0000000000000","EPHEMERIS_TYPE":"0","CENTER_NAME":"EARTH","CLASSIFICATION_TYPE":"U","ELEMENT_SET_NO":"999","TLE_LINE2":"2 52274  53.2170 185.1354 0002141  62.5370  42.0044 15.08823731  1304","EPOCH":"2022-08-17T16:00:00.999936","OBJECT_TYPE":"PAYLOAD","TIME_SYSTEM":"UTC","APOAPSIS":"541.276","SITE":"AFETR","COUNTRY_CODE":"US","NORAD_CAT_ID":"52274","REF_FRAME":"TEME","OBJECT_NAME":"STARLINK-3790","BSTAR":"0.00127560000000","MEAN_MOTION_DOT":"0.00020063","OBJECT_ID":"2022-041P","INCLINATION":"53.2170","GP_ID":"210409220","ECCENTRICITY":"0.00021410","DECAY_DATE":null,"MEAN_ELEMENT_THEORY":"SGP4","RCS_SIZE":"LARGE","RA_OF_ASC_NODE":"185.1354","FILE":"3538809","REV_AT_EPOCH":"130","MEAN_ANOMALY":"42.0044","TLE_LINE1":"1 52274U 22041P   22229.66667824  .00020063  00000-0  12756-2 0  9995","ARG_OF_PERICENTER":"62.5370","PERIAPSIS":"538.314","PERIOD":"95.439"},{"PERIOD":"95.438","PERIAPSIS":"538.345","ARG_OF_PERICENTER":"55.3259","TLE_LINE1":"1 52275U 22041Q   22229.66667824  .00016366  00000-0  10441-2 0  9996","MEAN_ANOMALY":"9.1822","REV_AT_EPOCH":"130","FILE":"3538809","RA_OF_ASC_NODE":"185.1364","RCS_SIZE":"LARGE","MEAN_ELEMENT_THEORY":"SGP4","DECAY_DATE":null,"ECCENTRICITY":"0.00020450","INCLINATION":"53.2180","GP_ID":"210408812","OBJECT_ID":"2022-041Q","MEAN_MOTION_DOT":"0.00016366","BSTAR":"0.00104410000000","OBJECT_NAME":"STARLINK-3784","REF_FRAME":"TEME","NORAD_CAT_ID":"52275","COUNTRY_CODE":"US","SITE":"AFETR","TIME_SYSTEM":"UTC","APOAPSIS":"541.175","OBJECT_TYPE":"PAYLOAD","EPOCH":"2022-08-17T16:00:00.999936","TLE_LINE2":"2 52275  53.2180 185.1364 0002045  55.3259   9.1822 15.08835219  1308","ELEMENT_SET_NO":"999","CLASSIFICATION_TYPE":"U","EPHEMERIS_TYPE":"0","CENTER_NAME":"EARTH","MEAN_MOTION_DDOT":"0.0000000000000","LAUNCH_DATE":"2022-04-21","SEMIMAJOR_AXIS":"6917.895","MEAN_MOTION":"15.08835219"},{"NORAD_CAT_ID":"52276","REF_FRAME":"TEME","OBJECT_NAME":"STARLINK-3778","BSTAR":"0.00004944600000","MEAN_MOTION_DOT":"0.00000499","OBJECT_ID":"2022-041R","INCLINATION":"53.2180","GP_ID":"210408676","ECCENTRICITY":"0.00022280","DECAY_DATE":null,"MEAN_ELEMENT_THEORY":"SGP4","RCS_SIZE":"LARGE","RA_OF_ASC_NODE":"185.1467","FILE":"3538809","REV_AT_EPOCH":"130","MEAN_ANOMALY":"68.5432","TLE_LINE1":"1 52276U 22041R   22229.66667824  .00000499  00000-0  49446-4 0  9996","PERIAPSIS":"538.229","ARG_OF_PERICENTER":"55.9992","PERIOD":"95.438","MEAN_MOTION":"15.08831821","SEMIMAJOR_AXIS":"6917.905","LAUNCH_DATE":"2022-04-21","MEAN_MOTION_DDOT":"0.0000000000000","CENTER_NAME":"EARTH","EPHEMERIS_TYPE":"0","CLASSIFICATION_TYPE":"U","ELEMENT_SET_NO":"999","EPOCH":"2022-08-17T16:00:00.999936","TLE_LINE2":"2 52276  53.2180 185.1467 0002228  55.9992  68.5432 15.08831821  1307","OBJECT_TYPE":"PAYLOAD","TIME_SYSTEM":"UTC","APOAPSIS":"541.312","SITE":"AFETR","COUNTRY_CODE":"US"}];
